OBJECT_NAME,OBJECT_ID,EPOCH,MEAN_MOTION,ECCENTRICITY,INCLINATION,RA_OF_ASC_NODE,ARG_OF_PERICENTER,MEAN_ANOMALY,EPHEMERIS_TYPE,CLASSIFICATION_TYPE,NORAD_CAT_ID,ELEMENT_SET_NO,REV_AT_EPOCH,BSTAR,MEAN_MOTION_DOT,MEAN_MOTION_DDOT
STARLINK-2141,2021-017K,2026-05-13T01:24:42.624288,15.60032846,.00058581,53.1542,253.9116,300.6470,59.3966,0,U,47731,999,28786,.70106067E-3,.57713E-3,0
STARLINK-2143,2021-017M,2026-05-13T02:53:52.657440,15.31696393,.00013582,53.1603,277.0791,83.2659,276.8497,0,U,47733,999,28758,.94960399E-4,.2582E-4,0
STARLINK-2144,2021-017N,2026-05-13T01:22:13.087488,15.31710775,.00012051,53.1581,264.5813,86.1858,273.9281,0,U,47734,999,28772,.68988591E-4,.1777E-4,0
STARLINK-2147,2021-017Q,2026-05-13T05:04:25.553568,15.41341450,.0002985,53.0739,260.9888,315.4176,44.6588,0,U,47736,999,28780,.95064464E-3,.40062E-3,0
STARLINK-2150,2021-017T,2026-05-13T02:48:35.842464,15.31707074,.00007238,53.1615,279.6062,238.9500,121.1430,0,U,47739,999,28755,.28675479E-4,.525E-5,0
STARLINK-2156,2021-017W,2026-05-13T01:19:21.948960,15.31712347,.0001306,53.1597,254.8482,81.6132,278.5017,0,U,47742,999,28789,.55615242E-4,.1362E-4,0
STARLINK-2159,2021-017Z,2026-05-13T01:18:44.343360,15.54106160,.00047168,53.1568,256.6151,311.9958,48.0651,0,U,47745,999,28781,.1099633E-2,.7285E-3,0
STARLINK-2160,2021-017AA,2026-05-12T18:45:02.116800,15.43739755,.00032734,53.1583,263.5816,325.7766,34.3029,0,U,47746,999,28768,.10264261E-2,.46978E-3,0
STARLINK-2161,2021-017AB,2026-05-13T01:12:36.185184,15.31707111,.00013286,53.1600,254.6058,83.7453,276.3700,0,U,47747,999,28787,.44919112E-4,.1029E-4,0
STARLINK-2162,2021-017AC,2026-05-12T14:23:17.803104,15.61791373,.0006938,53.1552,244.7303,321.6828,38.3693,0,U,47748,999,28794,.87858E-3,.77773E-3,0
STARLINK-2163,2021-017AD,2026-05-13T04:46:34.690368,15.54932961,.00068955,53.1546,246.8411,324.1955,35.8594,0,U,47749,999,28796,.86562473E-3,.58938E-3,0
STARLINK-2164,2021-017AE,2026-05-13T01:32:39.917760,15.31712584,.00010972,53.1593,254.1808,68.7478,291.3641,0,U,47750,999,28785,.5443897E-4,.1325E-4,0
STARLINK-2169,2021-017AG,2026-05-13T01:00:18.732672,15.55689765,.00034361,53.1553,257.8623,335.6821,24.4028,0,U,47752,999,28784,.93735805E-3,.65686E-3,0
STARLINK-2170,2021-017AH,2026-05-13T01:49:03.839232,15.31709037,.0001638,53.1603,264.5033,88.8464,271.2725,0,U,47753,999,28775,-.55933945E-4,-.2101E-4,0
STARLINK-2171,2021-017AJ,2026-05-13T08:00:01.000224,15.92151988,.00120153,53.0369,204.0818,359.4283,36.3103,0,U,47754,999,602,.50195848E-3,.169785E-2,.21891576E-4
STARLINK-2178,2021-017AQ,2026-05-12T16:29:41.807616,15.31710151,.00004578,53.1590,279.1121,21.6510,338.4511,0,U,47760,999,28749,.30653689E-4,.587E-5,0
STARLINK-2180,2021-017AS,2026-05-12T18:00:01.699488,15.67621499,.00034137,53.1586,269.1097,289.7094,70.3554,0,U,47762,999,28763,.48134599E-3,.53301E-3,0
STARLINK-2185,2021-017AX,2026-05-13T01:07:01.603776,15.48870077,.00046219,53.1562,259.9309,318.2856,41.7799,0,U,47767,999,28781,.98379387E-3,.5382E-3,0
STARLINK-2193,2021-017BA,2026-05-12T18:52:57.212256,15.31713768,.00012241,53.1612,265.8574,87.3320,272.7822,0,U,47770,999,28768,.10714231E-3,.2962E-4,0
STARLINK-2194,2021-017BB,2026-05-12T18:59:39.240960,15.31713674,.00011838,53.1587,265.7675,85.4930,274.6206,0,U,47771,999,28769,.98174174E-4,.2684E-4,0
STARLINK-2195,2021-017BC,2026-05-12T16:36:31.881024,15.31713696,.00013486,53.1615,279.6889,107.5694,252.5455,0,U,47772,999,28746,.86508264E-4,.2321E-4,0
STARLINK-2196,2021-017BD,2026-05-12T18:17:05.936928,15.31716016,.00011278,53.1588,278.7884,90.1109,270.0022,0,U,47773,999,28747,.12798322E-3,.361E-4,0
STARLINK-2209,2021-017BG,2026-05-13T01:13:40.256832,15.52805381,.0004698,53.1556,256.2360,303.5884,56.4678,0,U,47776,999,28784,.1062559E-2,.67069E-3,0
STARLINK-2211,2021-017BJ,2026-05-13T04:39:13.633056,15.45878805,.00040844,53.1587,259.5349,289.3750,70.6816,0,U,47778,999,28780,.90062942E-3,.44291E-3,0
STARLINK-2213,2021-017BL,2026-05-13T02:09:11.305152,15.31697983,.00013512,53.1604,264.3599,77.0227,283.0926,0,U,47780,999,28776,-.97587262E-4,-.3392E-4,0
STARLINK-2257,2021-018A,2026-05-13T04:36:04.947552,15.30196481,.00011587,53.1605,305.7318,88.6326,271.4807,0,U,47787,999,28656,.15732685E-4,.107E-5,0
STARLINK-2314,2021-018B,2026-05-13T08:00:01.000224,15.36502824,.0001943,53.1574,278.0721,276.9966,42.9406,0,U,47788,999,588,.20395028E-2,.74047E-3,0
STARLINK-2315,2021-018C,2026-05-13T08:00:01.000224,15.31669017,.00011895,53.1585,298.7046,96.6488,41.9880,0,U,47789,999,565,.15060024E-2,.46615E-3,0
STARLINK-2319,2021-018D,2026-05-13T03:13:59.694816,15.31712602,.00010056,53.1583,277.0098,73.3105,286.8007,0,U,47790,999,28697,.82689717E-4,.2203E-4,0
STARLINK-2322,2021-018E,2026-05-13T04:04:10.333920,15.31711664,.00012137,53.1593,303.0831,91.2672,268.8468,0,U,47791,999,28661,.31172453E-4,.603E-5,0
