STARLINK-2141           
1 47731U 21017K   26133.05882667  .00057713  00000+0  70106-3 0  9999
2 47731  53.1542 253.9116 0005858 300.6470  59.3966 15.60032846287861
STARLINK-2143           
1 47733U 21017M   26133.12074835  .00002582  00000+0  94960-4 0  9998
2 47733  53.1603 277.0791 0001358  83.2659 276.8497 15.31696393287586
STARLINK-2144           
1 47734U 21017N   26133.05709592  .00001777  00000+0  68989-4 0  9993
2 47734  53.1581 264.5813 0001205  86.1858 273.9281 15.31710775287728
STARLINK-2147           
1 47736U 21017Q   26133.21140687  .00040062  00000+0  95064-3 0  9990
2 47736  53.0739 260.9888 0002985 315.4176  44.6588 15.41341450287806
STARLINK-2150           
1 47739U 21017T   26133.11708151  .00000525  00000+0  28675-4 0  9993
2 47739  53.1615 279.6062 0000723 238.9500 121.1430 15.31707074287558
STARLINK-2156           
1 47742U 21017W   26133.05511515  .00001362  00000+0  55615-4 0  9990
2 47742  53.1597 254.8482 0001306  81.6132 278.5017 15.31712347287898
STARLINK-2159           
1 47745U 21017Z   26133.05467990  .00072850  00000+0  10996-2 0  9991
2 47745  53.1568 256.6151 0004716 311.9958  48.0651 15.54106160287816
STARLINK-2160           
1 47746U 21017AA  26132.78127450  .00046978  00000+0  10264-2 0  9995
2 47746  53.1583 263.5816 0003273 325.7766  34.3029 15.43739755287688
STARLINK-2161           
1 47747U 21017AB  26133.05041881  .00001029  00000+0  44919-4 0  9994
2 47747  53.1600 254.6058 0001328  83.7453 276.3700 15.31707111287874
STARLINK-2162           
1 47748U 21017AC  26132.59951161  .00077773  00000+0  87858-3 0  9991
2 47748  53.1552 244.7303 0006938 321.6828  38.3693 15.61791373287947
STARLINK-2163           
1 47749U 21017AD  26133.19901262  .00058938  00000+0  86562-3 0  9999
2 47749  53.1546 246.8411 0006895 324.1955  35.8594 15.54932961287961
STARLINK-2164           
1 47750U 21017AE  26133.06435090  .00001325  00000+0  54439-4 0  9995
2 47750  53.1593 254.1808 0001097  68.7478 291.3641 15.31712584287859
STARLINK-2169           
1 47752U 21017AG  26133.04188348  .00065686  00000+0  93736-3 0  9998
2 47752  53.1553 257.8623 0003436 335.6821  24.4028 15.55689765287842
STARLINK-2170           
1 47753U 21017AH  26133.07573888 -.00002101  00000+0 -55934-4 0  9993
2 47753  53.1603 264.5033 0001638  88.8464 271.2725 15.31709037287756
STARLINK-2171           
1 47754U 21017AJ  26133.33334491  .00169785  21892-4  50196-3 0  9999
2 47754  53.0369 204.0818 0012015 359.4283  36.3103 15.92151988  6024
STARLINK-2178           
1 47760U 21017AQ  26132.68728944  .00000587  00000+0  30654-4 0  9998
2 47760  53.1590 279.1121 0000457  21.6510 338.4511 15.31710151287493
STARLINK-2180           
1 47762U 21017AS  26132.75001967  .00053301  00000+0  48135-3 0  9991
2 47762  53.1586 269.1097 0003413 289.7094  70.3554 15.67621499287630
STARLINK-2185           
1 47767U 21017AX  26133.04654634  .00053820  00000+0  98379-3 0  9995
2 47767  53.1562 259.9309 0004621 318.2856  41.7799 15.48870077287818
STARLINK-2193           
1 47770U 21017BA  26132.78677329  .00002962  00000+0  10714-3 0  9993
2 47770  53.1612 265.8574 0001224  87.3320 272.7822 15.31713768287687
STARLINK-2194           
1 47771U 21017BB  26132.79142640  .00002684  00000+0  98174-4 0  9996
2 47771  53.1587 265.7675 0001183  85.4930 274.6206 15.31713674287694
STARLINK-2195           
1 47772U 21017BC  26132.69203566  .00002321  00000+0  86508-4 0  9997
2 47772  53.1615 279.6889 0001348 107.5694 252.5455 15.31713696287464
STARLINK-2196           
1 47773U 21017BD  26132.76187427  .00003610  00000+0  12798-3 0  9994
2 47773  53.1588 278.7884 0001127  90.1109 270.0022 15.31716016287477
STARLINK-2209           
1 47776U 21017BG  26133.05116038  .00067069  00000+0  10626-2 0  9995
2 47776  53.1556 256.2360 0004698 303.5884  56.4678 15.52805381287843
STARLINK-2211           
1 47778U 21017BJ  26133.19390779  .00044291  00000+0  90063-3 0  9994
2 47778  53.1587 259.5349 0004084 289.3750  70.6816 15.45878805287805
STARLINK-2213           
1 47780U 21017BL  26133.08971418 -.00003392  00000+0 -97587-4 0  9998
2 47780  53.1604 264.3599 0001351  77.0227 283.0926 15.31697983287762
STARLINK-2257           
1 47787U 21018A   26133.19172393  .00000107  00000+0  15733-4 0  9995
2 47787  53.1605 305.7318 0001158  88.6326 271.4807 15.30196481286564
STARLINK-2314           
1 47788U 21018B   26133.33334491  .00074047  00000+0  20395-2 0  9993
2 47788  53.1574 278.0721 0001943 276.9966  42.9406 15.36502824  5882
STARLINK-2315           
1 47789U 21018C   26133.33334491  .00046615  00000+0  15060-2 0  9997
2 47789  53.1585 298.7046 0001189  96.6488  41.9880 15.31669017  5655
STARLINK-2319           
1 47790U 21018D   26133.13471869  .00002203  00000+0  82690-4 0  9998
2 47790  53.1583 277.0098 0001005  73.3105 286.8007 15.31712602286973
STARLINK-2322           
1 47791U 21018E   26133.16956405  .00000603  00000+0  31172-4 0  9997
2 47791  53.1593 303.0831 0001213  91.2672 268.8468 15.31711664286618
